start=new Date('2022-10-16T00:00:00.000Z').valueOf();
sats=[{"ELEMENT_SET_NO":"999","OBJECT_ID":"2021-115T","BSTAR":"0.00010221000000","MEAN_MOTION_DDOT":"0.0000000000000","NORAD_CAT_ID":"49741","GP_ID":"215220448","MEAN_MOTION":"15.08845533","MEAN_ELEMENT_THEORY":"SGP4","INCLINATION":"53.2170","CENTER_NAME":"EARTH","RCS_SIZE":"LARGE","LAUNCH_DATE":"2021-12-02","OBJECT_TYPE":"PAYLOAD","COUNTRY_CODE":"US","TIME_SYSTEM":"UTC","PERIAPSIS":"538.227","OBJECT_NAME":"STARLINK-3244","TLE_LINE1":"1 49741U 21115T   22288.80721087  .00001339  00000-0  10221-3 0  9995","TLE_LINE2":"2 49741  53.2170 319.6516 0002171  41.7754 318.3403 15.08845533 49316","REF_FRAME":"TEME","REV_AT_EPOCH":"4931","DECAY_DATE":null,"APOAPSIS":"541.230","PERIOD":"95.437","CLASSIFICATION_TYPE":"U","ECCENTRICITY":"0.00021710","FILE":"3615396","MEAN_ANOMALY":"318.3403","RA_OF_ASC_NODE":"319.6516","SEMIMAJOR_AXIS":"6917.863","EPHEMERIS_TYPE":"0","ARG_OF_PERICENTER":"41.7754","MEAN_MOTION_DOT":"0.00001339","SITE":"AFETR","EPOCH":"2022-10-15T19:22:23.019168"},{"PERIAPSIS":"538.158","TIME_SYSTEM":"UTC","COUNTRY_CODE":"US","REF_FRAME":"TEME","TLE_LINE2":"2 49742  53.2164 319.5951 0002211  37.6743 322.4403 15.08858941 48209","REV_AT_EPOCH":"4820","DECAY_DATE":null,"OBJECT_NAME":"STARLINK-3202","TLE_LINE1":"1 49742U 21115U   22288.82192656  .00006082  00000-0  39970-3 0  9994","RCS_SIZE":"LARGE","CENTER_NAME":"EARTH","OBJECT_TYPE":"PAYLOAD","LAUNCH_DATE":"2021-12-02","GP_ID":"215249251","MEAN_MOTION":"15.08858941","INCLINATION":"53.2164","MEAN_ELEMENT_THEORY":"SGP4","OBJECT_ID":"2021-115U","ELEMENT_SET_NO":"999","MEAN_MOTION_DDOT":"0.0000000000000","BSTAR":"0.00039970000000","NORAD_CAT_ID":"49742","EPOCH":"2022-10-15T19:43:34.454784","ARG_OF_PERICENTER":"37.6743","MEAN_MOTION_DOT":"0.00006082","SITE":"AFETR","MEAN_ANOMALY":"322.4403","RA_OF_ASC_NODE":"319.5951","FILE":"3615679","SEMIMAJOR_AXIS":"6917.822","EPHEMERIS_TYPE":"0","PERIOD":"95.436","CLASSIFICATION_TYPE":"U","ECCENTRICITY":"0.00022110","APOAPSIS":"541.217"},{"OBJECT_ID":"2021-115V","ELEMENT_SET_NO":"999","NORAD_CAT_ID":"49743","BSTAR":"0.00002573600000","MEAN_MOTION_DDOT":"0.0000000000000","MEAN_MOTION":"15.08839944","GP_ID":"215249502","INCLINATION":"53.2172","MEAN_ELEMENT_THEORY":"SGP4","RCS_SIZE":"LARGE","CENTER_NAME":"EARTH","OBJECT_TYPE":"PAYLOAD","LAUNCH_DATE":"2021-12-02","TIME_SYSTEM":"UTC","PERIAPSIS":"538.164","COUNTRY_CODE":"US","DECAY_DATE":null,"REV_AT_EPOCH":"4820","REF_FRAME":"TEME","TLE_LINE2":"2 49743  53.2172 319.6461 0002286  34.5062 325.6079 15.08839944 48204","OBJECT_NAME":"STARLINK-3239","TLE_LINE1":"1 49743U 21115V   22288.81089999  .00000121  00000-0  25736-4 0  9993","CLASSIFICATION_TYPE":"U","PERIOD":"95.438","ECCENTRICITY":"0.00022860","APOAPSIS":"541.327","RA_OF_ASC_NODE":"319.6461","MEAN_ANOMALY":"325.6079","FILE":"3615679","EPHEMERIS_TYPE":"0","SEMIMAJOR_AXIS":"6917.881","MEAN_MOTION_DOT":"0.00000121","ARG_OF_PERICENTER":"34.5062","SITE":"AFETR","EPOCH":"2022-10-15T19:27:41.759136"},{"APOAPSIS":"541.114","PERIOD":"95.437","ECCENTRICITY":"0.00020260","CLASSIFICATION_TYPE":"U","EPHEMERIS_TYPE":"0","SEMIMAJOR_AXIS":"6917.847","FILE":"3615324","RA_OF_ASC_NODE":"319.5556","MEAN_ANOMALY":"317.3675","SITE":"AFETR","MEAN_MOTION_DOT":"0.00003978","ARG_OF_PERICENTER":"42.7474","EPOCH":"2022-10-15T19:54:10.658592","NORAD_CAT_ID":"49744","MEAN_MOTION_DDOT":"0.0000000000000","BSTAR":"0.00026779000000","ELEMENT_SET_NO":"999","OBJECT_ID":"2021-115W","MEAN_ELEMENT_THEORY":"SGP4","INCLINATION":"53.2163","MEAN_MOTION":"15.08850819","GP_ID":"215218284","LAUNCH_DATE":"2021-12-02","OBJECT_TYPE":"PAYLOAD","RCS_SIZE":"LARGE","CENTER_NAME":"EARTH","OBJECT_NAME":"STARLINK-3231","TLE_LINE1":"1 49744U 21115W   22288.82929003  .00003978  00000-0  26779-3 0  9994","REV_AT_EPOCH":"4931","DECAY_DATE":null,"REF_FRAME":"TEME","TLE_LINE2":"2 49744  53.2163 319.5556 0002026  42.7474 317.3675 15.08850819 49316","COUNTRY_CODE":"US","TIME_SYSTEM":"UTC","PERIAPSIS":"538.311"},{"BSTAR":"0.00008135600000","MEAN_MOTION_DDOT":"0.0000000000000","NORAD_CAT_ID":"49745","OBJECT_ID":"2021-115X","ELEMENT_SET_NO":"999","INCLINATION":"53.2179","MEAN_ELEMENT_THEORY":"SGP4","GP_ID":"215248500","MEAN_MOTION":"15.08848494","OBJECT_TYPE":"PAYLOAD","LAUNCH_DATE":"2021-12-02","CENTER_NAME":"EARTH","RCS_SIZE":"LARGE","TLE_LINE2":"2 49745  53.2179 319.6199 0002229  40.4918 319.6240 15.08848494 48207","REF_FRAME":"TEME","DECAY_DATE":null,"REV_AT_EPOCH":"4820","OBJECT_NAME":"STARLINK-3241","TLE_LINE1":"1 49745U 21115X   22288.81825043  .00001007  00000-0  81356-4 0  9997","PERIAPSIS":"538.177","TIME_SYSTEM":"UTC","COUNTRY_CODE":"US","PERIOD":"95.437","CLASSIFICATION_TYPE":"U","ECCENTRICITY":"0.00022290","APOAPSIS":"541.261","SEMIMAJOR_AXIS":"6917.854","EPHEMERIS_TYPE":"0","MEAN_ANOMALY":"319.6240","RA_OF_ASC_NODE":"319.6199","FILE":"3615679","SITE":"AFETR","ARG_OF_PERICENTER":"40.4918","MEAN_MOTION_DOT":"0.00001007","EPOCH":"2022-10-15T19:38:16.837152"},{"FILE":"3615679","MEAN_ANOMALY":"324.8752","RA_OF_ASC_NODE":"320.7065","SEMIMAJOR_AXIS":"6917.843","EPHEMERIS_TYPE":"0","APOAPSIS":"541.340","CLASSIFICATION_TYPE":"U","PERIOD":"95.437","ECCENTRICITY":"0.00023590","EPOCH":"2022-10-15T13:43:14.104128","ARG_OF_PERICENTER":"35.2395","MEAN_MOTION_DOT":"0.00006602","SITE":"AFETR","GP_ID":"215248751","MEAN_MOTION":"15.08852304","MEAN_ELEMENT_THEORY":"SGP4","INCLINATION":"53.2155","ELEMENT_SET_NO":"999","OBJECT_ID":"2021-115Y","BSTAR":"0.00043236000000","MEAN_MOTION_DDOT":"0.0000000000000","NORAD_CAT_ID":"49746","COUNTRY_CODE":"US","TIME_SYSTEM":"UTC","PERIAPSIS":"538.076","TLE_LINE1":"1 49746U 21115Y   22288.57169102  .00006602  00000-0  43236-3 0  9998","OBJECT_NAME":"STARLINK-3233","TLE_LINE2":"2 49746  53.2155 320.7065 0002359  35.2395 324.8752 15.08852304 48168","REF_FRAME":"TEME","REV_AT_EPOCH":"4816","DECAY_DATE":null,"CENTER_NAME":"EARTH","RCS_SIZE":"MEDIUM","LAUNCH_DATE":"2021-12-02","OBJECT_TYPE":"PAYLOAD"},{"ELEMENT_SET_NO":"999","OBJECT_ID":"2021-115Z","BSTAR":"-0.00000751710000","MEAN_MOTION_DDOT":"0.0000000000000","NORAD_CAT_ID":"49747","GP_ID":"215249002","MEAN_MOTION":"15.08836125","MEAN_ELEMENT_THEORY":"SGP4","INCLINATION":"53.2179","RCS_SIZE":"LARGE","CENTER_NAME":"EARTH","LAUNCH_DATE":"2021-12-02","OBJECT_TYPE":"PAYLOAD","COUNTRY_CODE":"US","TIME_SYSTEM":"UTC","PERIAPSIS":"538.027","OBJECT_NAME":"STARLINK-3247","TLE_LINE1":"1 49747U 21115Z   22288.82561964 -.00000408  00000-0 -75171-5 0  9994","TLE_LINE2":"2 49747  53.2179 319.5714 0002501  35.4419 324.6739 15.08836125 48201","REF_FRAME":"TEME","DECAY_DATE":null,"REV_AT_EPOCH":"4820","APOAPSIS":"541.487","PERIOD":"95.438","CLASSIFICATION_TYPE":"U","ECCENTRICITY":"0.00025010","FILE":"3615679","MEAN_ANOMALY":"324.6739","RA_OF_ASC_NODE":"319.5714","SEMIMAJOR_AXIS":"6917.892","EPHEMERIS_TYPE":"0","ARG_OF_PERICENTER":"35.4419","MEAN_MOTION_DOT":"-0.00000408","SITE":"AFETR","EPOCH":"2022-10-15T19:48:53.536896"},{"SEMIMAJOR_AXIS":"6917.868","EPHEMERIS_TYPE":"0","FILE":"3614916","MEAN_ANOMALY":"319.3507","RA_OF_ASC_NODE":"321.8894","APOAPSIS":"541.308","PERIOD":"95.437","CLASSIFICATION_TYPE":"U","ECCENTRICITY":"0.00022760","EPOCH":"2022-10-15T07:32:18.033504","SITE":"AFETR","ARG_OF_PERICENTER":"40.7655","MEAN_MOTION_DOT":"0.00001059","MEAN_ELEMENT_THEORY":"SGP4","INCLINATION":"53.2172","GP_ID":"215207317","MEAN_MOTION":"15.08844043","BSTAR":"0.00008460400000","MEAN_MOTION_DDOT":"0.0000000000000","NORAD_CAT_ID":"49748","ELEMENT_SET_NO":"999","OBJECT_ID":"2021-115AA","TLE_LINE1":"1 49748U 21115AA  22288.31409761  .00001059  00000-0  84604-4 0  9996","OBJECT_NAME":"STARLINK-3248","REF_FRAME":"TEME","TLE_LINE2":"2 49748  53.2172 321.8894 0002276  40.7655 319.3507 15.08844043 48134","REV_AT_EPOCH":"4813","DECAY_DATE":null,"COUNTRY_CODE":"US","TIME_SYSTEM":"UTC","PERIAPSIS":"538.159","LAUNCH_DATE":"2021-12-02","OBJECT_TYPE":"PAYLOAD","CENTER_NAME":"EARTH","RCS_SIZE":"LARGE"},{"OBJECT_TYPE":"PAYLOAD","LAUNCH_DATE":"2021-12-02","CENTER_NAME":"EARTH","RCS_SIZE":"LARGE","TLE_LINE2":"2 49749  53.2171 320.7312 0002380  36.1109 324.0044 15.08849856 48165","REF_FRAME":"TEME","DECAY_DATE":null,"REV_AT_EPOCH":"4816","TLE_LINE1":"1 49749U 21115AB  22288.56801593  .00001806  00000-0  13149-3 0  9998","OBJECT_NAME":"STARLINK-3250","PERIAPSIS":"538.069","TIME_SYSTEM":"UTC","COUNTRY_CODE":"US","BSTAR":"0.00013149000000","MEAN_MOTION_DDOT":"0.0000000000000","NORAD_CAT_ID":"49749","OBJECT_ID":"2021-115AB","ELEMENT_SET_NO":"999","INCLINATION":"53.2171","MEAN_ELEMENT_THEORY":"SGP4","GP_ID":"215248000","MEAN_MOTION":"15.08849856","SITE":"AFETR","ARG_OF_PERICENTER":"36.1109","MEAN_MOTION_DOT":"0.00001806","EPOCH":"2022-10-15T13:37:56.576352","PERIOD":"95.437","CLASSIFICATION_TYPE":"U","ECCENTRICITY":"0.00023800","APOAPSIS":"541.362","SEMIMAJOR_AXIS":"6917.850","EPHEMERIS_TYPE":"0","MEAN_ANOMALY":"324.0044","RA_OF_ASC_NODE":"320.7312","FILE":"3615679"},{"SITE":"AFETR","MEAN_MOTION_DOT":"-0.00000607","ARG_OF_PERICENTER":"37.3724","EPOCH":"2022-10-15T18:50:36.164256","PERIOD":"95.438","CLASSIFICATION_TYPE":"U","ECCENTRICITY":"0.00022790","APOAPSIS":"541.322","EPHEMERIS_TYPE":"0","SEMIMAJOR_AXIS":"6917.880","RA_OF_ASC_NODE":"319.7669","MEAN_ANOMALY":"322.7426","FILE":"3615397","OBJECT_TYPE":"PAYLOAD","LAUNCH_DATE":"2021-12-02","CENTER_NAME":"EARTH","RCS_SIZE":"LARGE","DECAY_DATE":null,"REV_AT_EPOCH":"4931","REF_FRAME":"TEME","TLE_LINE2":"2 49750  53.2174 319.7669 0002279  37.3724 322.7426 15.08840095 49319","TLE_LINE1":"1 49750U 21115AC  22288.78514079 -.00000607  00000-0 -20025-4 0  9996","OBJECT_NAME":"STARLINK-3236","PERIAPSIS":"538.169","TIME_SYSTEM":"UTC","COUNTRY_CODE":"US","NORAD_CAT_ID":"49750","BSTAR":"-0.00002002500000","MEAN_MOTION_DDOT":"0.0000000000000","OBJECT_ID":"2021-115AC","ELEMENT_SET_NO":"999","INCLINATION":"53.2174","MEAN_ELEMENT_THEORY":"SGP4","MEAN_MOTION":"15.08840095","GP_ID":"215220459"}];
